[{"OBJECT_NAME":"STARLINK-35353","OBJECT_ID":"2025-211T","EPOCH":"2026-03-09T16:16:15.592800","MEAN_MOTION":15.05660775,"ECCENTRICITY":7.77e-6,"INCLINATION":97.6035,"RA_OF_ASC_NODE":114.1077,"ARG_OF_PERICENTER":76.3388,"MEAN_ANOMALY":283.7847,"EPHEMERIS_TYPE":0,"CLASSIFICATION_TYPE":"U","NORAD_CAT_ID":65669,"ELEMENT_SET_NO":999,"REV_AT_EPOCH":2704,"BSTAR":0.0002516605,"MEAN_MOTION_DOT":3.573e-5,"MEAN_MOTION_DDOT":0},{"OBJECT_NAME":"COSMOS 2251 DEB","OBJECT_ID":"1993-036GR","EPOCH":"2026-03-09T03:51:30.155616","MEAN_MOTION":15.03624382,"ECCENTRICITY":0.001162,"INCLINATION":74.0519,"RA_OF_ASC_NODE":328.1155,"ARG_OF_PERICENTER":228.8449,"MEAN_ANOMALY":281.5146,"EPHEMERIS_TYPE":0,"CLASSIFICATION_TYPE":"U","NORAD_CAT_ID":34006,"ELEMENT_SET_NO":999,"REV_AT_EPOCH":89963,"BSTAR":0.0037151817,"MEAN_MOTION_DOT":0.00051242,"MEAN_MOTION_DDOT":0}]
